start=new Date('2023-03-21T00:00:00.000Z').valueOf();
sats=[{"MEAN_MOTION_DOT":"0.00034173","SITE":"AFETR","RCS_SIZE":"LARGE","NORAD_CAT_ID":"46543","EPHEMERIS_TYPE":"0","MEAN_MOTION":"15.06455807","TLE_LINE1":"1 46543U 20070M   23079.53221510  .00034173  00000-0  22985-2 0  9997","LAUNCH_DATE":"2020-10-06","ARG_OF_PERICENTER":"74.6058","OBJECT_TYPE":"PAYLOAD","CENTER_NAME":"EARTH","TIME_SYSTEM":"UTC","GP_ID":"228523709","REV_AT_EPOCH":"13596","ELEMENT_SET_NO":"999","MEAN_MOTION_DDOT":"0.0000000000000","BSTAR":"0.00229850000000","CLASSIFICATION_TYPE":"U","PERIOD":"95.589","TLE_LINE2":"2 46543  53.0549   8.0785 0001161  74.6058 285.5059 15.06455807135966","INCLINATION":"53.0549","REF_FRAME":"TEME","RA_OF_ASC_NODE":"8.0785","APOAPSIS":"547.847","ECCENTRICITY":"0.00011610","OBJECT_NAME":"STARLINK-1693","FILE":"3866053","PERIAPSIS":"546.239","DECAY_DATE":null,"COUNTRY_CODE":"US","SEMIMAJOR_AXIS":"6925.178","OBJECT_ID":"2020-070M","MEAN_ELEMENT_THEORY":"SGP4","EPOCH":"2023-03-20T12:46:23.384640","MEAN_ANOMALY":"285.5059"},{"DECAY_DATE":null,"COUNTRY_CODE":"US","SEMIMAJOR_AXIS":"6925.311","OBJECT_ID":"2020-070N","MEAN_ELEMENT_THEORY":"SGP4","EPOCH":"2023-03-20T04:42:40.486752","MEAN_ANOMALY":"258.3787","PERIOD":"95.591","TLE_LINE2":"2 46544  53.0555 354.5907 0001530 101.7374 258.3787 15.06412293136107","INCLINATION":"53.0555","APOAPSIS":"548.235","ECCENTRICITY":"0.00015300","RA_OF_ASC_NODE":"354.5907","REF_FRAME":"TEME","OBJECT_NAME":"STARLINK-1694","FILE":"3865912","PERIAPSIS":"546.116","CENTER_NAME":"EARTH","TIME_SYSTEM":"UTC","REV_AT_EPOCH":"13610","GP_ID":"228514349","CLASSIFICATION_TYPE":"U","MEAN_MOTION_DDOT":"0.0000000000000","BSTAR":"0.00198630000000","ELEMENT_SET_NO":"999","SITE":"AFETR","MEAN_MOTION_DOT":"0.00029438","NORAD_CAT_ID":"46544","RCS_SIZE":"LARGE","EPHEMERIS_TYPE":"0","TLE_LINE1":"1 46544U 20070N   23079.19630193  .00029438  00000-0  19863-2 0  9990","MEAN_MOTION":"15.06412293","OBJECT_TYPE":"PAYLOAD","ARG_OF_PERICENTER":"101.7374","LAUNCH_DATE":"2020-10-06"},{"DECAY_DATE":null,"COUNTRY_CODE":"US","SEMIMAJOR_AXIS":"6925.413","OBJECT_ID":"2020-070P","MEAN_ELEMENT_THEORY":"SGP4","MEAN_ANOMALY":"268.2915","EPOCH":"2023-03-20T05:41:44.019456","PERIOD":"95.593","TLE_LINE2":"2 46545  53.0564   9.4017 0001488  91.8244 268.2915 15.06378963135896","INCLINATION":"53.0564","REF_FRAME":"TEME","ECCENTRICITY":"0.00014880","APOAPSIS":"548.309","RA_OF_ASC_NODE":"9.4017","OBJECT_NAME":"STARLINK-1696","FILE":"3865912","PERIAPSIS":"546.248","CENTER_NAME":"EARTH","TIME_SYSTEM":"UTC","GP_ID":"228513104","REV_AT_EPOCH":"13589","CLASSIFICATION_TYPE":"U","MEAN_MOTION_DDOT":"0.0000000000000","ELEMENT_SET_NO":"999","BSTAR":"0.00236410000000","MEAN_MOTION_DOT":"0.00035088","SITE":"AFETR","NORAD_CAT_ID":"46545","RCS_SIZE":"LARGE","EPHEMERIS_TYPE":"0","MEAN_MOTION":"15.06378963","TLE_LINE1":"1 46545U 20070P   23079.23731504  .00035088  00000-0  23641-2 0  9991","LAUNCH_DATE":"2020-10-06","ARG_OF_PERICENTER":"91.8244","OBJECT_TYPE":"PAYLOAD"},{"PERIOD":"95.593","TLE_LINE2":"2 46546  53.0550   8.2755 0001458 110.8902 249.2243 15.06385915135931","REF_FRAME":"TEME","APOAPSIS":"548.266","ECCENTRICITY":"0.00014580","RA_OF_ASC_NODE":"8.2755","INCLINATION":"53.0550","OBJECT_NAME":"STARLINK-1697","PERIAPSIS":"546.247","FILE":"3865912","DECAY_DATE":null,"COUNTRY_CODE":"US","OBJECT_ID":"2020-070Q","SEMIMAJOR_AXIS":"6925.392","EPOCH":"2023-03-20T11:42:38.943072","MEAN_ANOMALY":"249.2243","MEAN_ELEMENT_THEORY":"SGP4","MEAN_MOTION_DOT":"0.00033735","SITE":"AFETR","RCS_SIZE":"LARGE","NORAD_CAT_ID":"46546","MEAN_MOTION":"15.06385915","TLE_LINE1":"1 46546U 20070Q   23079.48795073  .00033735  00000-0  22737-2 0  9992","EPHEMERIS_TYPE":"0","ARG_OF_PERICENTER":"110.8902","LAUNCH_DATE":"2020-10-06","OBJECT_TYPE":"PAYLOAD","CENTER_NAME":"EARTH","GP_ID":"228512855","REV_AT_EPOCH":"13593","TIME_SYSTEM":"UTC","MEAN_MOTION_DDOT":"0.0000000000000","CLASSIFICATION_TYPE":"U","BSTAR":"0.00227370000000","ELEMENT_SET_NO":"999"},{"EPHEMERIS_TYPE":"0","TLE_LINE1":"1 46547U 20070R   23079.18476532  .00031506  00000-0  21247-2 0  9995","MEAN_MOTION":"15.06397281","OBJECT_TYPE":"PAYLOAD","LAUNCH_DATE":"2020-10-06","ARG_OF_PERICENTER":"112.4907","SITE":"AFETR","MEAN_MOTION_DOT":"0.00031506","NORAD_CAT_ID":"46547","RCS_SIZE":"LARGE","TIME_SYSTEM":"UTC","GP_ID":"228513602","REV_AT_EPOCH":"13589","MEAN_MOTION_DDOT":"0.0000000000000","BSTAR":"0.00212470000000","CLASSIFICATION_TYPE":"U","ELEMENT_SET_NO":"999","CENTER_NAME":"EARTH","OBJECT_NAME":"STARLINK-1698","FILE":"3865912","PERIAPSIS":"546.279","PERIOD":"95.592","TLE_LINE2":"2 46547  53.0540   9.6273 0001361 112.4907 247.6226 15.06397281135894","INCLINATION":"53.0540","APOAPSIS":"548.164","RA_OF_ASC_NODE":"9.6273","ECCENTRICITY":"0.00013610","REF_FRAME":"TEME","SEMIMAJOR_AXIS":"6925.357","OBJECT_ID":"2020-070R","MEAN_ELEMENT_THEORY":"SGP4","EPOCH":"2023-03-20T04:26:03.723648","MEAN_ANOMALY":"247.6226","DECAY_DATE":null,"COUNTRY_CODE":"US"},{"GP_ID":"228513850","REV_AT_EPOCH":"13594","TIME_SYSTEM":"UTC","BSTAR":"0.00227430000000","MEAN_MOTION_DDOT":"0.0000000000000","CLASSIFICATION_TYPE":"U","ELEMENT_SET_NO":"999","CENTER_NAME":"EARTH","TLE_LINE1":"1 46548U 20070S   23079.52850189  .00033776  00000-0  22743-2 0  9991","MEAN_MOTION":"15.06420570","EPHEMERIS_TYPE":"0","OBJECT_TYPE":"PAYLOAD","LAUNCH_DATE":"2020-10-06","ARG_OF_PERICENTER":"112.9572","SITE":"AFETR","MEAN_MOTION_DOT":"0.00033776","NORAD_CAT_ID":"46548","RCS_SIZE":"LARGE","OBJECT_ID":"2020-070S","SEMIMAJOR_AXIS":"6925.286","MEAN_ANOMALY":"247.1564","EPOCH":"2023-03-20T12:41:02.563296","MEAN_ELEMENT_THEORY":"SGP4","DECAY_DATE":null,"COUNTRY_CODE":"US","OBJECT_NAME":"STARLINK-1699","PERIAPSIS":"546.190","FILE":"3865912","TLE_LINE2":"2 46548  53.0544   8.0936 0001387 112.9572 247.1564 15.06420570135943","PERIOD":"95.591","ECCENTRICITY":"0.00013870","APOAPSIS":"548.111","RA_OF_ASC_NODE":"8.0936","REF_FRAME":"TEME","INCLINATION":"53.0544"},{"SEMIMAJOR_AXIS":"6925.261","OBJECT_ID":"2020-070T","MEAN_ELEMENT_THEORY":"SGP4","MEAN_ANOMALY":"275.7717","EPOCH":"2023-03-20T11:47:56.843232","DECAY_DATE":null,"COUNTRY_CODE":"US","OBJECT_NAME":"STARLINK-1700","FILE":"3865912","PERIAPSIS":"546.320","PERIOD":"95.590","TLE_LINE2":"2 46549  53.0548   8.2599 0001164  84.3405 275.7717 15.06428601135934","INCLINATION":"53.0548","REF_FRAME":"TEME","APOAPSIS":"547.932","ECCENTRICITY":"0.00011640","RA_OF_ASC_NODE":"8.2599","TIME_SYSTEM":"UTC","REV_AT_EPOCH":"13593","GP_ID":"228512606","MEAN_MOTION_DDOT":"0.0000000000000","CLASSIFICATION_TYPE":"U","BSTAR":"0.00156420000000","ELEMENT_SET_NO":"999","CENTER_NAME":"EARTH","EPHEMERIS_TYPE":"0","MEAN_MOTION":"15.06428601","TLE_LINE1":"1 46549U 20070T   23079.49163013  .00023112  00000-0  15642-2 0  9994","LAUNCH_DATE":"2020-10-06","ARG_OF_PERICENTER":"84.3405","OBJECT_TYPE":"PAYLOAD","MEAN_MOTION_DOT":"0.00023112","SITE":"AFETR","RCS_SIZE":"LARGE","NORAD_CAT_ID":"46549"},{"OBJECT_NAME":"STARLINK-1701","PERIAPSIS":"546.456","FILE":"3865912","PERIOD":"95.592","TLE_LINE2":"2 46550  53.0562   9.5190 0001082 106.8414 253.2694 15.06402626135891","REF_FRAME":"TEME","ECCENTRICITY":"0.00010820","APOAPSIS":"547.955","RA_OF_ASC_NODE":"9.5190","INCLINATION":"53.0562","OBJECT_ID":"2020-070U","SEMIMAJOR_AXIS":"6925.341","EPOCH":"2023-03-20T05:04:36.659424","MEAN_ANOMALY":"253.2694","MEAN_ELEMENT_THEORY":"SGP4","DECAY_DATE":null,"COUNTRY_CODE":"US","MEAN_MOTION":"15.06402626","TLE_LINE1":"1 46550U 20070U   23079.21153541  .00029519  00000-0  19922-2 0  9993","EPHEMERIS_TYPE":"0","ARG_OF_PERICENTER":"106.8414","LAUNCH_DATE":"2020-10-06","OBJECT_TYPE":"PAYLOAD","MEAN_MOTION_DOT":"0.00029519","SITE":"AFETR","NORAD_CAT_ID":"46550","RCS_SIZE":"LARGE","REV_AT_EPOCH":"13589","GP_ID":"228513354","TIME_SYSTEM":"UTC","CLASSIFICATION_TYPE":"U","MEAN_MOTION_DDOT":"0.0000000000000","ELEMENT_SET_NO":"999","BSTAR":"0.00199220000000","CENTER_NAME":"EARTH"},{"MEAN_MOTION_DOT":"0.01288012","SITE":"AFETR","RCS_SIZE":"LARGE","NORAD_CAT_ID":"46552","EPHEMERIS_TYPE":"0","MEAN_MOTION":"15.90830349","TLE_LINE1":"1 46552U 20070W   23080.01145697  .01288012  76507-3  40734-2 0  9997","LAUNCH_DATE":"2020-10-06","ARG_OF_PERICENTER":"252.2810","OBJECT_TYPE":"PAYLOAD","CENTER_NAME":"EARTH","TIME_SYSTEM":"UTC","REV_AT_EPOCH":"13734","GP_ID":"228551639","CLASSIFICATION_TYPE":"U","MEAN_MOTION_DDOT":"0.0007650700000","ELEMENT_SET_NO":"999","BSTAR":"0.00407340000000","PERIOD":"90.519","TLE_LINE2":"2 46552  53.0358 267.2415 0002917 252.2810 108.0528 15.90830349137348","INCLINATION":"53.0358","REF_FRAME":"TEME","APOAPSIS":"301.908","ECCENTRICITY":"0.00029170","RA_OF_ASC_NODE":"267.2415","OBJECT_NAME":"STARLINK-1649","FILE":"3866119","PERIAPSIS":"298.012","DECAY_DATE":null,"COUNTRY_CODE":"US","SEMIMAJOR_AXIS":"6678.095","OBJECT_ID":"2020-070W","MEAN_ELEMENT_THEORY":"SGP4","MEAN_ANOMALY":"108.0528","EPOCH":"2023-03-21T00:16:29.882208"},{"CENTER_NAME":"EARTH","TIME_SYSTEM":"UTC","GP_ID":"228523496","REV_AT_EPOCH":"13631","MEAN_MOTION_DDOT":"0.0000000000000","ELEMENT_SET_NO":"999","CLASSIFICATION_TYPE":"U","BSTAR":"0.00230730000000","SITE":"AFETR","MEAN_MOTION_DOT":"0.00034245","RCS_SIZE":"LARGE","NORAD_CAT_ID":"46553","EPHEMERIS_TYPE":"0","TLE_LINE1":"1 46553U 20070X   23079.13319168  .00034245  00000-0  23073-2 0  9990","MEAN_MOTION":"15.06391452","OBJECT_TYPE":"PAYLOAD","LAUNCH_DATE":"2020-10-06","ARG_OF_PERICENTER":"109.4503","DECAY_DATE":null,"COUNTRY_CODE":"US","SEMIMAJOR_AXIS":"6925.375","OBJECT_ID":"2020-070X","MEAN_ELEMENT_THEORY":"SGP4","MEAN_ANOMALY":"250.6636","EPOCH":"2023-03-20T03:11:47.761152","TLE_LINE2":"2 46553  53.0546 339.8861 0001386 109.4503 250.6636 15.06391452136314","PERIOD":"95.593","INCLINATION":"53.0546","APOAPSIS":"548.200","ECCENTRICITY":"0.00013860","RA_OF_ASC_NODE":"339.8861","REF_FRAME":"TEME","OBJECT_NAME":"STARLINK-1664","FILE":"3866050","PERIAPSIS":"546.280"}];
